#aV2019  6 25  0  0  0.00000000     288 DD+AD WGS84 FIT  NGA
## 2059 172800.00000000   300.00000000 58659 0.0000000000000
+   31     1  2  3  5  6  7  8  9 10 11 12 13 14 15 16 17 18
+         19 20 21 22 23 24 25 26 27 28 29 30 31 32  0  0  0
+          0  0  0  0  0  0  0  0  0  0  0  0  0  0  0  0  0
+          0  0  0  0  0  0  0  0  0  0  0  0  0  0  0  0  0
+          0  0  0  0  0  0  0  0  0  0  0  0  0  0  0  0  0
++         2  2  2  2  2  2  2  2  2  2  2  2  2  2  2  2  2
++         2  2  2  2  2  2  2  2  2  2  2  2  2  2  0  0  0
++         0  0  0  0  0  0  0  0  0  0  0  0  0  0  0  0  0
++         0  0  0  0  0  0  0  0  0  0  0  0  0  0  0  0  0
++         0  0  0  0  0  0  0  0  0  0  0  0  0  0  0  0  0
%c cc cc ccc ccc cccc cccc cccc cccc ccccc ccccc ccccc ccccc
%c cc cc ccc ccc cccc cccc cccc cccc ccccc ccccc ccccc ccccc
%f  0.0000000  0.000000000  0.00000000000  0.000000000000000
%f  0.0000000  0.000000000  0.00000000000  0.000000000000000
%i    0    0    0    0      0      0      0      0         0
%i    0    0    0    0      0      0      0      0         0
/*      NGA, ST. LOUIS,MO.                                  
/*   EPHEMERIS COMPUTED FROM 2 DAYS OF DATA                 
/*   EPOCHA v5 SMOOTHER                                     
/*   G1762 IERS2010 SATAF SATAPC                            
*  2019  6 25 19 45  0.00000000
P  1  22043.908960  13396.628191   6813.853360    -50.509189                    
V  1   5275.465401   7336.509053 -30315.732091     -0.099723                    
P  2 -11052.165456 -20529.566116  13464.649818   -245.788157                    
V  2  14005.721257   8146.079322  24912.112079     -0.088424                    
P  3  13796.058351   7221.325793  21485.198191    184.154890                    
V  3  -5753.738656  26751.877949  -5198.796079     -0.016041                    
P  5  -3666.887907 -23973.984754 -10707.230665      0.374215                    
V  5   5108.996082 -12828.184970  27489.951764     -0.001900                    
P  6   2573.022122 -16401.045168  20764.504418    167.682280                    
V  6  20289.038207  16655.396366  10695.092081     -0.108538                    
P  7  19853.176855   1186.704957 -17566.887261    -51.744338                    
V  7  15802.466690  16327.782537  18205.969465     -0.076812                    
P  8  16685.373792   7968.928461 -19116.006998   -148.804175                    
V  8 -22458.150669   9184.265731 -15547.334784     -0.014987                    
P  9  25308.244326  -7948.114543   1399.946524    384.173426                    
V  9   -685.638023   3517.593287  31488.281797     -0.079173                    
P 10 -11346.429505  21674.614729 -10020.917113      4.575995                    
V 10    -84.495336 -13142.708695 -28347.109445     -0.123048                    
P 11  24460.279414   9567.772075  -3368.381819   -576.159151                    
V 11  -4807.682966   3371.092927 -30353.039039      0.089020                    
P 12 -11872.261801 -10318.744663  21213.969185    229.782181                    
V 12   7611.310808 -26274.083975  -8273.960795     -0.035596                    
P 13  -6942.434393 -13828.533973 -21701.009712    -57.447473                    
V 13  26631.056505  -5878.841341  -4747.533017      0.016661                    
P 14  -9027.128656  16205.685226  19266.072020    -74.431763                    
V 14 -23446.374668   4537.094196 -15240.173958      0.017615                    
P 15 -18300.056295  -6893.342588 -18404.247982   -304.832104                    
V 15  20108.004511 -10904.746770 -15752.218792      0.023565                    
P 16   1041.776453  23803.679005 -11450.705965    -51.030304                    
V 16  -6000.969805  13225.463428  27815.760334     -0.031195                    
P 17  17073.509946 -14721.441071  14380.134915     77.872676                    
V 17  17315.273248  -3271.288231 -24689.843979      0.064995                    
P 18  19619.245517  17882.749639  -2593.723056     64.883361                    
V 18  -3877.340243    570.443953 -31315.481603      0.030830                    
P 19  11328.999454 -15189.987560  18332.275023   -302.066576                    
V 19  23497.932304  -4175.019604 -17627.127473      0.047675                    
P 20 -14075.069840  14280.462334 -17444.846731    525.601246                    
V 20   -589.384250 -22213.638307 -17970.900084      0.002278                    
P 21 -16446.288827   4865.352413 -19447.409774   -166.365000                    
V 21 -20039.160189 -17454.475584  12255.238935      0.071486                    
P 22  12219.570274  14828.217117  18603.513970   -722.327437                    
V 22  -4627.449722  22843.574650 -15274.644599     -0.055034                    
P 23  23285.477624   1872.303300  13343.932577   -180.135827                    
V 23 -14528.453560   7694.665164  24515.315066      0.017384                    
P 24 -22272.988032 -14355.737047   3433.386925    -67.962475                    
V 24  -1565.717777  -5316.227317 -30641.570162     -0.005477                    
P 25 -15479.007711   4494.047291  20848.633248   -768.662622                    
V 25   4473.609894 -26633.275016   9214.386281     -0.030535                    
P 26  -4025.135107  26147.503942   -626.723479    235.918751                    
V 26  -3360.559436    212.958512  31645.578055      0.093745                    
P 27   4140.530654  14302.340984 -22098.795994   -167.634982                    
V 27 -26311.792800   8804.924096   1064.533110     -0.103535                    
P 28  12762.205552 -21088.665015  -9412.213088    767.150601                    
V 28  -1671.381663  12819.943347 -29038.805355     -0.003310                    
P 29 -25843.610028   3475.716673   5048.330704    167.328271                    
V 29   5706.339992  -3576.151948  31433.390843     -0.095689                    
P 30  12807.418852  -9271.132034 -21331.307479   -130.889318                    
V 30  19491.672614  18978.002550   3256.476546     -0.073911                    
P 31  -1835.066428  17321.022936  19918.044230     28.607154                    
V 31 -19564.520816 -16307.928688  12811.930270     -0.026221                    
P 32 -15687.423778  16048.961281  14171.949643    -28.472340                    
V 32 -17710.001214   3721.172020 -24041.902236      0.157831                    
EOF
